# Made by eph2tle, compiled Nov 21 2022 19:22:55
# Run at Sun Nov 27 09:58:18 2022
#
#    The following TLEs (Two-Line Elements) were generated by fitting
# a numerically-integrated ephemeris,  based on the orbit given below,
# to the SDP4/SGP4 models.  Each TLE is good for the interval between
# its epoch and the epoch of the subsequent TLE (usually one day).
# The maximum deviation between the numerically integrated ephemerides
# and the TLE-based ephemeris, in kilometers,  is given for each TLE
# as the "worst residual".
#
#    This fitting is done using the 'eph2tle' code packaged with Find_Orb.
# The code has details on how the TLEs were computed :
#
#    https://github.com/Bill-Gray/find_orb/eph2tle.cpp
#
#    Be warned:  the error given is that between the numerically
# integrated ephems and the TLE model.  There will usually be at
# least some additional difference between the ephems and the actual
# motion of the satellite,  especially if the ephemerides are based
# on a short arc.  If the following orbital elements say something
# like "[based on] 10 observations 2015 Jan. 1-13",  and the TLEs
# are for 2015 May,  the extrapolation may be tenuous at best.  If
# your application requires a specific level of accuracy,  you may
# want to contact me;  I can give you some idea as to the fit of the
# underlying data (and possibly TLEs based on newer data).
#
#   You can usually find the underlying observational data,  and the
# fitted orbit,  residuals,  ephemerides,  and sometimes some comments
# about the object,  among the pages listed at
#
#    https://www.projectpluto.com/pluto/mpecs/pseudo.htm
#
#    Also,  if you use a TLE outside the "correct" time range (between
# its MJD and that of the next TLE),  all bets are off.  I've carefully
# computed and minimized the worst error over the "correct" time frame,
# but the ephemeris may (or may not) diverge wildly outside of it.
#
# Ephem range: 59823.000000 60004.000000 1.000000
# Created Sun Nov 27 09:57:46 2022
# Ephemeris start:  1 Sep 2022  0:00:00
# Ephemeris end:    1 Mar 2023  0:00:00
# Times are all TDT
# Positions/velocities are in equatorial J2000
# Orbital elements:  TMG0079
#    Perigee 2022 Nov 8.5788812 +/- 0.000309 TT = 13:53:35.33 (JD 2459892.0788812)
# Epoch 2022 Nov  8.0 TT; AMR 35.813 +/- 0.142 m^2/kg              Find_Orb
# M 198.7920123625 +/- 0.08           (J2000 equator)
# n 278.4819687813 +/- 0.00561        Peri.  211.8582836 +/- 0.032
# a 50127.046788 +/- 0.674            Node     5.8877983 +/- 0.0025
# e   0.550581821 +/- 7.31e-5         Incl.   38.6980214 +/- 0.0029
# P1861.49m/1.293d           H 32.63  G  0.15   U  9.3
# q 22528.006054 +/- 3.63    Q 77726.087521 +/- 3.96
# From 18 observations 2022 Oct. 23-Nov. 23; mean residual 14".569
#
# 1 NoradU COSPAR   Epoch.epoch     dn/dt/2  d2n/dt2/6 BSTAR    T El# C
# 2 NoradU Inclina RAAscNode Eccent  ArgPeri MeanAno  MeanMotion Rev# C

# Worst residual: 48.27 km
# MJD 59823.000000 (2022 Sep  1  0:00)
TMG0079
1 79977U 22999ZZC 22244.49919926  .00000000  00000-0  00000-0 0 17925
2 79977 038.3363 007.5142 5257660 166.6033 148.1334 00.77262754    06

# Worst residual: 125.38 km
# MJD 59824.000000 (2022 Sep  2  0:00)
TMG0079
1 79977U 22999ZZC 22245.49919926  .00000000  00000-0  00000-0 0 17926
2 79977 038.3798 007.4981 5283775 167.1993 066.3519 00.77564831    02

# Worst residual: 97.75 km
# MJD 59825.000000 (2022 Sep  3  0:00)
TMG0079
1 79977U 22999ZZC 22246.49919926  .00000000  00000-0  00000-0 0 17927
2 79977 038.4351 007.4689 5294297 167.9849 343.9498 00.77711471    06

# Worst residual: 93.00 km
# MJD 59826.000000 (2022 Sep  4  0:00)
TMG0079
1 79977U 22999ZZC 22247.49919926  .00000000  00000-0  00000-0 0 17928
2 79977 038.4700 007.4274 5309310 168.5874 261.8641 00.77407562    03

# Worst residual: 37.50 km
# MJD 59827.000000 (2022 Sep  5  0:00)
TMG0079
1 79977U 22999ZZC 22248.49919926  .00000000  00000-0  00000-0 0 17929
2 79977 038.5085 007.3971 5308654 169.3473 179.9107 00.77246653    05

# Worst residual: 90.09 km
# MJD 59828.000000 (2022 Sep  6  0:00)
TMG0079
1 79977U 22999ZZC 22249.49919926  .00000000  00000-0  00000-0 0 17920
2 79977 038.5448 007.3875 5334620 170.0397 098.0822 00.77424128    07

# Worst residual: 88.63 km
# MJD 59829.000000 (2022 Sep  7  0:00)
TMG0079
1 79977U 22999ZZC 22250.49919926  .00000000  00000-0  00000-0 0 17922
2 79977 038.5931 007.3629 5344042 170.6931 015.9818 00.77719905    03

# Worst residual: 96.76 km
# MJD 59830.000000 (2022 Sep  8  0:00)
TMG0079
1 79977U 22999ZZC 22251.49919926  .00000000  00000-0  00000-0 0 17923
2 79977 038.6399 007.3259 5364740 171.4191 293.6097 00.77545300    05

# Worst residual: 43.93 km
# MJD 59831.000000 (2022 Sep  9  0:00)
TMG0079
1 79977U 22999ZZC 22252.49919926  .00000000  00000-0  00000-0 0 17924
2 79977 038.6731 007.2934 5361449 172.0625 211.6638 00.77255307    02

# Worst residual: 75.32 km
# MJD 59832.000000 (2022 Sep 10  0:00)
TMG0079
1 79977U 22999ZZC 22253.49919926  .00000000  00000-0  00000-0 0 17925
2 79977 038.7106 007.2773 5380133 172.8623 129.7427 00.77312328    09

# Worst residual: 117.87 km
# MJD 59833.000000 (2022 Sep 11  0:00)
TMG0079
1 79977U 22999ZZC 22254.49919926  .00000000  00000-0  00000-0 0 17926
2 79977 038.7448 007.2710 5397920 173.4548 047.8439 00.77640956    08

# Worst residual: 115.09 km
# MJD 59834.000000 (2022 Sep 12  0:00)
TMG0079
1 79977U 22999ZZC 22255.49919926  .00000000  00000-0  00000-0 0 17927
2 79977 038.7866 007.2335 5409852 174.2666 325.3358 00.77655397    02

# Worst residual: 74.62 km
# MJD 59835.000000 (2022 Sep 13  0:00)
TMG0079
1 79977U 22999ZZC 22256.49919926  .00000000  00000-0  00000-0 0 17928
2 79977 038.8154 007.2107 5410307 174.8209 243.3566 00.77315260    08

# Worst residual: 39.19 km
# MJD 59836.000000 (2022 Sep 14  0:00)
TMG0079
1 79977U 22999ZZC 22257.49919926  .00000000  00000-0  00000-0 0 17929
2 79977 038.8450 007.1955 5415084 175.6202 161.3994 00.77251877    03

# Worst residual: 106.25 km
# MJD 59837.000000 (2022 Sep 15  0:00)
TMG0079
1 79977U 22999ZZC 22258.49919926  .00000000  00000-0  00000-0 0 17920
2 79977 038.8744 007.1737 5438436 176.2457 079.5917 00.77516437    03

# Worst residual: 83.64 km
# MJD 59838.000000 (2022 Sep 16  0:00)
TMG0079
1 79977U 22999ZZC 22259.49919926  .00000000  00000-0  00000-0 0 17921
2 79977 038.9180 007.1671 5443774 176.9567 357.2872 00.77718512    09

# Worst residual: 86.47 km
# MJD 59839.000000 (2022 Sep 17  0:00)
TMG0079
1 79977U 22999ZZC 22260.49919926  .00000000  00000-0  00000-0 0 17923
2 79977 038.9345 007.1358 5457119 177.5857 275.0959 00.77452537    06

# Worst residual: 42.77 km
# MJD 59840.000000 (2022 Sep 18  0:00)
TMG0079
1 79977U 22999ZZC 22261.49919926  .00000000  00000-0  00000-0 0 17924
2 79977 038.9693 007.1247 5451267 178.2738 193.1675 00.77247521    03

# Worst residual: 86.45 km
# MJD 59841.000000 (2022 Sep 19  0:00)
TMG0079
1 79977U 22999ZZC 22262.49919926  .00000000  00000-0  00000-0 0 17925
2 79977 038.9938 007.1117 5473007 178.9951 111.3080 00.77387970    06

# Worst residual: 104.13 km
# MJD 59842.000000 (2022 Sep 20  0:00)
TMG0079
1 79977U 22999ZZC 22263.49919926  .00000000  00000-0  00000-0 0 17926
2 79977 039.0258 007.1168 5479780 179.5848 029.3021 00.77703945    02

# Worst residual: 114.79 km
# MJD 59843.000000 (2022 Sep 21  0:00)
TMG0079
1 79977U 22999ZZC 22264.49919926  .00000000  00000-0  00000-0 0 17927
2 79977 039.0493 007.0870 5493296 180.3337 306.8647 00.77571207    04

# Worst residual: 49.50 km
# MJD 59844.000000 (2022 Sep 22  0:00)
TMG0079
1 79977U 22999ZZC 22265.49919926  .00000000  00000-0  00000-0 0 17928
2 79977 039.0749 007.0682 5487586 180.9229 224.9411 00.77279560    06

# Worst residual: 56.89 km
# MJD 59845.000000 (2022 Sep 23  0:00)
TMG0079
1 79977U 22999ZZC 22266.49919926  .00000000  00000-0  00000-0 0 17929
2 79977 039.0955 007.0582 5496494 181.7089 143.0339 00.77292395    06

# Worst residual: 117.35 km
# MJD 59846.000000 (2022 Sep 24  0:00)
TMG0079
1 79977U 22999ZZC 22267.49919926  .00000000  00000-0  00000-0 0 17920
2 79977 039.1098 007.0499 5513748 182.2545 061.2698 00.77614298    06

# Worst residual: 117.17 km
# MJD 59847.000000 (2022 Sep 25  0:00)
TMG0079
1 79977U 22999ZZC 22268.49919926  .00000000  00000-0  00000-0 0 17921
2 79977 039.1329 007.0385 5519002 182.9956 338.9044 00.77694553    00

# Worst residual: 81.11 km
# MJD 59848.000000 (2022 Sep 26  0:00)
TMG0079
1 79977U 22999ZZC 22269.49919926  .00000000  00000-0  00000-0 0 17922
2 79977 039.1458 007.0156 5522271 183.5448 256.9620 00.77389985    03

# Worst residual: 37.84 km
# MJD 59849.000000 (2022 Sep 27  0:00)
TMG0079
1 79977U 22999ZZC 22270.49919926  .00000000  00000-0  00000-0 0 17924
2 79977 039.1608 007.0061 5518531 184.2752 175.1284 00.77277074    08

# Worst residual: 80.67 km
# MJD 59850.000000 (2022 Sep 28  0:00)
TMG0079
1 79977U 22999ZZC 22271.49919926  .00000000  00000-0  00000-0 0 17925
2 79977 039.1746 006.9965 5539023 184.9050 093.4242 00.77502989    01

# Worst residual: 71.43 km
# MJD 59851.000000 (2022 Sep 29  0:00)
TMG0079
1 79977U 22999ZZC 22272.49919926  .00000000  00000-0  00000-0 0 17926
2 79977 039.1850 006.9843 5539417 185.5534 011.3642 00.77752814    00

# Worst residual: 102.00 km
# MJD 59852.000000 (2022 Sep 30  0:00)
TMG0079
1 79977U 22999ZZC 22273.49919926  .00000000  00000-0  00000-0 0 17927
2 79977 039.2014 006.9811 5550260 186.1746 289.2496 00.77522515    05

# Worst residual: 43.95 km
# MJD 59853.000000 (2022 Oct  1  0:00)
TMG0079
1 79977U 22999ZZC 22274.49919926  .00000000  00000-0  00000-0 0 17928
2 79977 039.2110 006.9574 5539227 186.8128 207.5038 00.77300490    00

# Worst residual: 81.92 km
# MJD 59854.000000 (2022 Oct  2  0:00)
TMG0079
1 79977U 22999ZZC 22275.49919926  .00000000  00000-0  00000-0 0 17929
2 79977 039.2194 006.9431 5552551 187.5476 125.7859 00.77404420    03
